     3.00           N                   E                   RINEX VERSION / TYPE
BRD_USR             ESA                 20190104 071753  UTCPGM / RUN BY / DATE
 GAL   3.7750E+01 -1.9531E-02  1.4648E-03  0.0000E+00       IONOSPHERIC CORR
GAUT  2.7939677238E-09-1.776356839E-15 432000 2034 GSTB   0 TIME SYSTEM CORR
GPGA -3.0559021980E-09-1.154631946E-14 432000 2034 GSTB   0 TIME SYSTEM CORR
                                                            END OF HEADER
E11 2019 01 04 05 40 00 5.718935921323E-03 1.193711796077E-12 0.000000000000E+00
     1.140000000000E+02-1.844687500000E+02 2.697969524117E-09 9.640985631464E-03
    -8.631497621536E-06 2.363672247157E-04 6.752088665962E-06 5.440610580444E+03
     4.524000000000E+05-2.048909664154E-08-7.393285411899E-01 1.117587089539E-08
     9.820195890348E-01 2.068125000000E+02-3.495114154219E-01-5.428083244312E-09
    -2.478674675321E-10 5.210000000000E+02 2.034000000000E+03 0.000000000000E+00
     3.120000000000E+00 0.000000000000E+00-1.839362084866E-08-2.002343535423E-08
     4.530850000000E+05 0.000000000000E+00 0.000000000000E+00 0.000000000000E+00
E12 2019 01 04 05 40 00 5.865566781722E-03 8.438405529887E-11 0.000000000000E+00
     1.140000000000E+02-1.831875000000E+02 2.680111637407E-09 1.361881037937E+00
    -8.532777428627E-06 3.668745048344E-04 6.305053830147E-06 5.440613605499E+03
     4.524000000000E+05-1.490116119385E-08-7.393440408070E-01-6.519258022308E-08
     9.820336710842E-01 2.141875000000E+02-8.980774944753E-01-5.467727752808E-09
    -2.639395655709E-10 5.210000000000E+02 2.034000000000E+03 0.000000000000E+00
     3.120000000000E+00 0.000000000000E+00-1.559965312481E-08-1.606531441212E-08
     4.530850000000E+05 0.000000000000E+00 0.000000000000E+00 0.000000000000E+00
E15 2019 01 04 05 40 00 9.239130886272E-04-1.037392394210E-12 0.000000000000E+00
     1.140000000000E+02-2.136562500000E+02 2.679040164205E-09-9.942330429627E-01
    -9.926036000252E-06 3.800948616117E-04 7.230788469315E-06 5.440601518631E+03
     4.524000000000E+05-7.450580596924E-09-7.446432713698E-01-3.352761268616E-08
     9.852187568072E-01 1.941875000000E+02-1.698711739008E+00-5.458798809453E-09
    -2.800116636097E-10 5.210000000000E+02 2.034000000000E+03 0.000000000000E+00
     3.120000000000E+00 4.550000000000E+02 1.396983861923E-09 1.164153218269E-09
     4.530850000000E+05 0.000000000000E+00 0.000000000000E+00 0.000000000000E+00
E18 2019 01 04 05 40 00 5.632300919387E-03-2.839328772097E-11 0.000000000000E+00
     1.140000000000E+02-1.950000000000E+01 3.550505035643E-09 1.418113151202E+00
    -5.582347512245E-06 1.664071260020E-01-9.125098586082E-06 5.289421314240E+03
     4.524000000000E+05 1.803040504456E-06-1.322220841657E+00-1.387670636177E-06
     8.817800648105E-01 5.242812500000E+02 1.436298985744E+00-6.070252850397E-09
    -5.825242644738E-10 5.210000000000E+02 2.034000000000E+03 0.000000000000E+00
     3.120000000000E+00 4.550000000000E+02 1.420266926289E-08 1.583248376846E-08
     4.530850000000E+05 0.000000000000E+00 0.000000000000E+00 0.000000000000E+00
E19 2019 01 04 05 40 00-9.385752491653E-06 3.126388037344E-13 0.000000000000E+00
     1.140000000000E+02 7.062500000000E+00 3.658366671370E-09-2.985452197347E+00
     2.495944499969E-07 1.414356520399E-04 4.021450877190E-06 5.440602523804E+03
     4.524000000000E+05-5.587935447693E-09 1.362589750064E+00-5.587935447693E-09
     9.579188095063E-01 2.543437500000E+02 2.200124457363E+00-5.764168672191E-09
     6.357407668690E-11 5.210000000000E+02 2.034000000000E+03 0.000000000000E+00
     3.120000000000E+00 0.000000000000E+00-8.614733815193E-09-9.080395102501E-09
     4.530850000000E+05 0.000000000000E+00 0.000000000000E+00 0.000000000000E+00
E21 2019 01 04 05 40 00-5.127033800818E-04-1.875832822407E-12 0.000000000000E+00
     1.140000000000E+02 1.970625000000E+02 2.417243545039E-09-1.747154885820E+00
     9.031966328621E-06 4.970224108547E-05 9.698793292046E-06 5.440640365601E+03
     4.524000000000E+05 1.862645149231E-09-2.827658188708E+00-2.235174179077E-08
     9.899104930826E-01 1.453437500000E+02-4.040697850942E-01-5.278434153684E-09
     2.246522148093E-10 5.210000000000E+02 2.034000000000E+03 0.000000000000E+00
     3.120000000000E+00 0.000000000000E+00-2.561137080193E-09-3.026798367500E-09
     4.530850000000E+05 0.000000000000E+00 0.000000000000E+00 0.000000000000E+00
E26 2019 01 04 05 40 00 5.059315706603E-03-4.325784175307E-11 0.000000000000E+00
     1.140000000000E+02-2.101875000000E+02 2.802259582502E-09-2.133123927002E+00
    -9.691342711449E-06 3.248406574130E-04 6.096437573433E-06 5.440615009308E+03
     4.524000000000E+05 1.676380634308E-08-7.356879627566E-01 9.313225746155E-09
     9.783774482050E-01 2.185000000000E+02-2.123676450323E+00-5.498443317949E-09
    -2.321525272275E-10 5.210000000000E+02 2.034000000000E+03 0.000000000000E+00
     3.120000000000E+00 0.000000000000E+00 1.164153218269E-09 1.396983861923E-09
     4.530850000000E+05 0.000000000000E+00 0.000000000000E+00 0.000000000000E+00
E30 2019 01 04 05 40 00 5.216340301558E-03-3.051070507354E-11 0.000000000000E+00
     1.140000000000E+02 2.091562500000E+02 2.400457131532E-09-1.090747290186E+00
     9.763985872269E-06 2.955388044938E-04 8.558854460716E-06 5.440623683929E+03
     4.524000000000E+05 1.490116119385E-07-2.821633653602E+00-1.285225152969E-07
     9.878980342156E-01 1.666875000000E+02 4.915922429158E-01-5.210217026452E-09
     2.639395655709E-10 5.210000000000E+02 2.034000000000E+03 0.000000000000E+00
     3.120000000000E+00 0.000000000000E+00-3.026798367500E-09-3.725290298462E-09
     4.530850000000E+05 0.000000000000E+00 0.000000000000E+00 0.000000000000E+00
E31 2019 01 04 05 40 00 9.414997766726E-04-9.578116078046E-12 0.000000000000E+00
     1.140000000000E+02 1.782187500000E+02 2.425815330660E-09-2.176040911010E+00
     8.437782526016E-06 2.566926414147E-04 8.694827556610E-06 5.440637178421E+03
     4.524000000000E+05-1.005828380585E-07-2.827689992547E+00 8.568167686462E-08
     9.898860930719E-01 1.660312500000E+02-1.544539203092E+00-5.328436236471E-09
     1.910793877949E-10 5.210000000000E+02 2.034000000000E+03 0.000000000000E+00
     3.120000000000E+00 0.000000000000E+00-2.328306436539E-10-2.328306436539E-10
     4.530850000000E+05 0.000000000000E+00 0.000000000000E+00 0.000000000000E+00
E36 2019 01 04 05 40 00 7.637427770533E-04-4.490630090004E-12 0.000000000000E+00
     1.140000000000E+02-1.804375000000E+02 2.758329181196E-09 5.360834467359E-01
    -8.413568139076E-06 3.212156007066E-04 7.182359695435E-06 5.440601905823E+03
     4.524000000000E+05-1.862645149231E-08-7.446424097110E-01 4.097819328308E-08
     9.852647802100E-01 1.993437500000E+02-1.656111965379E+00-5.445583973288E-09
    -2.307238962907E-10 5.210000000000E+02 2.034000000000E+03 0.000000000000E+00
     3.120000000000E+00 4.550000000000E+02 1.164153218269E-09 1.164153218269E-09
     4.530850000000E+05 0.000000000000E+00 0.000000000000E+00 0.000000000000E+00
E01 2019 01 04 05 40 00-5.133639206178E-04-8.057554623520E-12 0.000000000000E+00
     1.140000000000E+02 1.775625000000E+02 2.461888261814E-09-2.098109385078E+00
     8.337199687958E-06 1.160810934380E-04 9.415671229362E-06 5.440625537872E+03
     4.524000000000E+05-1.676380634308E-08-2.825051950410E+00-7.450580596924E-09
     9.903464894836E-01 1.528750000000E+02-8.549387350128E-01-5.246647115340E-09
     2.125088518467E-10 2.580000000000E+02 2.034000000000E+03 0.000000000000E+00
     3.120000000000E+00 0.000000000000E+00-4.656612873077E-09 0.000000000000E+00
     4.531000000000E+05 0.000000000000E+00 0.000000000000E+00 0.000000000000E+00
E02 2019 01 04 05 40 00 4.189653554931E-05 1.534772309242E-12 0.000000000000E+00
     1.140000000000E+02 2.048437500000E+02 2.415814914102E-09 4.688921211361E-01
     9.544193744659E-06 2.691170666367E-04 7.992610335350E-06 5.440629543304E+03
     4.524000000000E+05 6.332993507385E-08-2.825085111837E+00 1.862645149231E-09
     9.903550607206E-01 1.840000000000E+02-2.820556966376E-01-5.281648573292E-09
     2.275094766829E-10 2.580000000000E+02 2.034000000000E+03 0.000000000000E+00
     3.120000000000E+00 0.000000000000E+00-5.820766091347E-09 0.000000000000E+00
     4.531000000000E+05 0.000000000000E+00 0.000000000000E+00 0.000000000000E+00
E03 2019 01 04 05 40 00-1.182864652947E-04-4.263256414561E-12 0.000000000000E+00
     1.140000000000E+02 6.875000000000E-01 3.746941789451E-09 1.633330411728E+00
    -5.029141902924E-08 2.858822699636E-04 4.170462489128E-06 5.440602367401E+03
     4.524000000000E+05 4.470348358154E-08 1.365886509101E+00-1.490116119385E-08
     9.521481404262E-01 2.499062500000E+02 6.432062316642E-01-5.769168880469E-09
    -3.821587755898E-11 2.580000000000E+02 2.034000000000E+03 0.000000000000E+00
     3.120000000000E+00 0.000000000000E+00-1.862645149231E-09 0.000000000000E+00
     4.531000000000E+05 0.000000000000E+00 0.000000000000E+00 0.000000000000E+00
E04 2019 01 04 05 10 00-1.928472192958E-04-7.844391802792E-12 0.000000000000E+00
     1.110000000000E+02 4.500000000000E+00 3.700511284006E-09 2.572558647771E+00
     2.924352884293E-07 8.619413711131E-05 3.965571522713E-06 5.440603452682E+03
     4.506000000000E+05-9.313225746155E-09 1.365946357080E+00 9.313225746155E-09
     9.521906191784E-01 2.525937500000E+02 1.841484283909E+00-5.814170754978E-09
     5.143071372424E-11 2.580000000000E+02 2.034000000000E+03 0.000000000000E+00
     3.120000000000E+00 0.000000000000E+00-7.916241884232E-09 0.000000000000E+00
     4.531000000000E+05 0.000000000000E+00 0.000000000000E+00 0.000000000000E+00
